{"type": "FeatureCollection", "features": [ {"type": "Feature", "properties": {"norad_id": 42969, "name": "SENTINEL-5P", "group": "resource", "lat": -0.018812890012818623, "lon": -83.09917556710946, "alt_km": 829.8456421659203, "timestamp": "2025-12-04T05:42:43.035432+00:00", "meta": {"OBJECT_NAME": "SENTINEL-5P", "OBJECT_ID": "2017-064A", "EPOCH": "2025-12-03T19:33:43.278336", "MEAN_MOTION": 14.19513918, "ECCENTRICITY": 9.432e-05, "INCLINATION": 98.777, "RA_OF_ASC_NODE": 276.4789, "ARG_OF_PERICENTER": 85.8301, "MEAN_ANOMALY": 274.2983, "EPHEMERIS_TYPE": 0, "CLASSIFICATION_TYPE": "U", "NORAD_CAT_ID": 42969, "ELEMENT_SET_NO": 999, "REV_AT_EPOCH": 42184, "BSTAR": 9.9161892e-05, "MEAN_MOTION_DOT": 1.65e-06, "MEAN_MOTION_DDOT": 0}, "tle": {"line1": "1 42969U 17064A   25337.81508424  .00000165  00000+0  99162-4 0  9992", "line2": "2 42969  98.7770 276.4789 0000943  85.8301 274.2983 14.19513918421840"}}, "geometry": {"type": "Point", "coordinates": [-83.09917556710946, -0.018812890012818623]}}, {"type": "Feature", "properties": {"norad_id": 42987, "name": "SKYSAT-C11", "group": "resource", "lat": 6.871098916275545, "lon": -63.57797277280163, "alt_km": 427.6419861687291, "timestamp": "2025-12-04T05:42:43.035442+00:00", "meta": {"OBJECT_NAME": "SKYSAT-C11", "OBJECT_ID": "2017-068A", "EPOCH": "2025-12-03T21:12:15.016032", "MEAN_MOTION": 15.46879966, "ECCENTRICITY": 9.558e-05, "INCLINATION": 97.4137, "RA_OF_ASC_NODE": 115.1601, "ARG_OF_PERICENTER": 114.3605, "MEAN_ANOMALY": 245.7744, "EPHEMERIS_TYPE": 0, "CLASSIFICATION_TYPE": "U", "NORAD_CAT_ID": 42987, "ELEMENT_SET_NO": 999, "REV_AT_EPOCH": 45294, "BSTAR": 0.00073719144, "MEAN_MOTION_DOT": 0.00037095, "MEAN_MOTION_DDOT": 0}, "tle": {"line1": "1 42987U 17068A   25337.88350713  .00037095  00000+0  73719-3 0  9990", "line2": "2 42987  97.4137 115.1601 0000955 114.3605 245.7744 15.46879966452945"}}, "geometry": {"type": "Point", "coordinates": [-63.57797277280163, 6.871098916275545]}}, {"type": "Feature", "properties": {"norad_id": 42988, "name": "SKYSAT-C10", "group": "resource", "lat": -0.28421030073450976, "lon": 109.10469120886762, "alt_km": 474.6758207696439, "timestamp": "2025-12-04T05:42:43.035452+00:00", "meta": {"OBJECT_NAME": "SKYSAT-C10", "OBJECT_ID": "2017-068B", "EPOCH": "2025-12-03T21:52:31.156608", "MEAN_MOTION": 15.32008568, "ECCENTRICITY": 0.00055111, "INCLINATION": 97.4257, "RA_OF_ASC_NODE": 108.7403, "ARG_OF_PERICENTER": 118.6562, "MEAN_ANOMALY": 241.5234, "EPHEMERIS_TYPE": 0, "CLASSIFICATION_TYPE": "U", "NORAD_CAT_ID": 42988, "ELEMENT_SET_NO": 999, "REV_AT_EPOCH": 45244, "BSTAR": 0.00065499314, "MEAN_MOTION_DOT": 0.00020203, "MEAN_MOTION_DDOT": 0}, "tle": {"line1": "1 42988U 17068B   25337.91147172  .00020203  00000+0  65499-3 0  9997", "line2": "2 42988  97.4257 108.7403 0005511 118.6562 241.5234 15.32008568452449"}}, "geometry": {"type": "Point", "coordinates": [109.10469120886762, -0.28421030073450976]}}, {"type": "Feature", "properties": {"norad_id": 42989, "name": "SKYSAT-C9", "group": "resource", "lat": 81.64501989665872, "lon": 45.90994491645015, "alt_km": 445.0246390698512, "timestamp": "2025-12-04T05:42:43.035462+00:00", "meta": {"OBJECT_NAME": "SKYSAT-C9", "OBJECT_ID": "2017-068C", "EPOCH": "2025-12-03T21:31:09.602688", "MEAN_MOTION": 15.35691525, "ECCENTRICITY": 0.0010638, "INCLINATION": 97.4181, "RA_OF_ASC_NODE": 108.0834, "ARG_OF_PERICENTER": 116.4835, "MEAN_ANOMALY": 243.7501, "EPHEMERIS_TYPE": 0, "CLASSIFICATION_TYPE": "U", "NORAD_CAT_ID": 42989, "ELEMENT_SET_NO": 999, "REV_AT_EPOCH": 45272, "BSTAR": 0.00065967813, "MEAN_MOTION_DOT": 0.00022897, "MEAN_MOTION_DDOT": 0}, "tle": {"line1": "1 42989U 17068C   25337.89663892  .00022897  00000+0  65968-3 0  9999", "line2": "2 42989  97.4181 108.0834 0010638 116.4835 243.7501 15.35691525452728"}}, "geometry": {"type": "Point", "coordinates": [45.90994491645015, 81.64501989665872]}}, {"type": "Feature", "properties": {"norad_id": 42990, "name": "SKYSAT-C8", "group": "resource", "lat": 27.639387286961515, "lon": -67.87924269044771, "alt_km": 467.95043186163366, "timestamp": "2025-12-04T05:42:43.035472+00:00", "meta": {"OBJECT_NAME": "SKYSAT-C8", "OBJECT_ID": "2017-068D", "EPOCH": "2025-12-03T19:38:57.151392", "MEAN_MOTION": 15.32607067, "ECCENTRICITY": 0.00021185, "INCLINATION": 97.4277, "RA_OF_ASC_NODE": 107.7826, "ARG_OF_PERICENTER": 19.5333, "MEAN_ANOMALY": 340.5989, "EPHEMERIS_TYPE": 0, "CLASSIFICATION_TYPE": "U", "NORAD_CAT_ID": 42990, "ELEMENT_SET_NO": 999, "REV_AT_EPOCH": 45234, "BSTAR": 0.00052846093, "MEAN_MOTION_DOT": 0.00016579, "MEAN_MOTION_DDOT": 0}, "tle": {"line1": "1 42990U 17068D   25337.81871703  .00016579  00000+0  52846-3 0  9996", "line2": "2 42990  97.4277 107.7826 0002118  19.5333 340.5989 15.32607067452342"}}, "geometry": {"type": "Point", "coordinates": [-67.87924269044771, 27.639387286961515]}}, {"type": "Feature", "properties": {"norad_id": 42991, "name": "SKYSAT-C7", "group": "resource", "lat": 25.12211207466572, "lon": 105.74402413075515, "alt_km": 466.2259999052467, "timestamp": "2025-12-04T05:42:43.035483+00:00", "meta": {"OBJECT_NAME": "SKYSAT-C7", "OBJECT_ID": "2017-068E", "EPOCH": "2025-12-03T20:11:46.772448", "MEAN_MOTION": 15.32019698, "ECCENTRICITY": 0.00078739, "INCLINATION": 97.4283, "RA_OF_ASC_NODE": 108.8539, "ARG_OF_PERICENTER": 84.7974, "MEAN_ANOMALY": 275.4166, "EPHEMERIS_TYPE": 0, "CLASSIFICATION_TYPE": "U", "NORAD_CAT_ID": 42991, "ELEMENT_SET_NO": 999, "REV_AT_EPOCH": 45241, "BSTAR": 0.00063197557, "MEAN_MOTION_DOT": 0.00019505, "MEAN_MOTION_DDOT": 0}, "tle": {"line1": "1 42991U 17068E   25337.84151357  .00019505  00000+0  63198-3 0  9990", "line2": "2 42991  97.4283 108.8539 0007873  84.7974 275.4166 15.32019698452419"}}, "geometry": {"type": "Point", "coordinates": [105.74402413075515, 25.12211207466572]}}, {"type": "Feature", "properties": {"norad_id": 42992, "name": "SKYSAT-C6", "group": "resource", "lat": 11.89312976582726, "lon": -68.72787983987082, "alt_km": 471.9369910199266, "timestamp": "2025-12-04T05:42:43.035492+00:00", "meta": {"OBJECT_NAME": "SKYSAT-C6", "OBJECT_ID": "2017-068F", "EPOCH": "2025-12-03T21:08:22.276032", "MEAN_MOTION": 15.31198589, "ECCENTRICITY": 0.00051455, "INCLINATION": 97.4317, "RA_OF_ASC_NODE": 109.3389, "ARG_OF_PERICENTER": 107.6681, "MEAN_ANOMALY": 252.5122, "EPHEMERIS_TYPE": 0, "CLASSIFICATION_TYPE": "U", "NORAD_CAT_ID": 42992, "ELEMENT_SET_NO": 999, "REV_AT_EPOCH": 45240, "BSTAR": 0.00062176327, "MEAN_MOTION_DOT": 0.00018692, "MEAN_MOTION_DDOT": 0}, "tle": {"line1": "1 42992U 17068F   25337.88081338  .00018692  00000+0  62176-3 0  9997", "line2": "2 42992  97.4317 109.3389 0005145 107.6681 252.5122 15.31198589452400"}}, "geometry": {"type": "Point", "coordinates": [-68.72787983987082, 11.89312976582726]}}, {"type": "Feature", "properties": {"norad_id": 43111, "name": "CARTOSAT-2F", "group": "resource", "lat": -73.0872885149166, "lon": 61.440250336135236, "alt_km": 515.2187203691119, "timestamp": "2025-12-04T05:42:43.035502+00:00", "meta": {"OBJECT_NAME": "CARTOSAT-2F", "OBJECT_ID": "2018-004A", "EPOCH": "2025-12-03T22:08:15.239904", "MEAN_MOTION": 15.19361073, "ECCENTRICITY": 0.00011245, "INCLINATION": 97.433, "RA_OF_ASC_NODE": 35.7026, "ARG_OF_PERICENTER": 187.1053, "MEAN_ANOMALY": 173.0166, "EPHEMERIS_TYPE": 0, "CLASSIFICATION_TYPE": "U", "NORAD_CAT_ID": 43111, "ELEMENT_SET_NO": 999, "REV_AT_EPOCH": 43768, "BSTAR": 8.4888928e-05, "MEAN_MOTION_DOT": 1.727e-05, "MEAN_MOTION_DDOT": 0}, "tle": {"line1": "1 43111U 18004A   25337.92239861  .00001727  00000+0  84889-4 0  9990", "line2": "2 43111  97.4330  35.7026 0001124 187.1053 173.0166 15.19361073437682"}}, "geometry": {"type": "Point", "coordinates": [61.440250336135236, -73.0872885149166]}}, {"type": "Feature", "properties": {"norad_id": 43259, "name": "GAOFEN-1 02", "group": "resource", "lat": -78.78746369981789, "lon": 81.81478717819317, "alt_km": 647.0441993388249, "timestamp": "2025-12-04T05:42:43.035512+00:00", "meta": {"OBJECT_NAME": "GAOFEN-1 02", "OBJECT_ID": "2018-031A", "EPOCH": "2025-12-03T23:34:40.065024", "MEAN_MOTION": 14.7645159, "ECCENTRICITY": 0.00013072, "INCLINATION": 98.0819, "RA_OF_ASC_NODE": 35.7678, "ARG_OF_PERICENTER": 254.7553, "MEAN_ANOMALY": 105.3512, "EPHEMERIS_TYPE": 0, "CLASSIFICATION_TYPE": "U", "NORAD_CAT_ID": 43259, "ELEMENT_SET_NO": 999, "REV_AT_EPOCH": 41389, "BSTAR": 0.00026117226, "MEAN_MOTION_DOT": 1.765e-05, "MEAN_MOTION_DDOT": 0}, "tle": {"line1": "1 43259U 18031A   25337.98240816  .00001765  00000+0  26117-3 0  9992", "line2": "2 43259  98.0819  35.7678 0001307 254.7553 105.3512 14.76451590413892"}}, "geometry": {"type": "Point", "coordinates": [81.81478717819317, -78.78746369981789]}}, {"type": "Feature", "properties": {"norad_id": 43260, "name": "GAOFEN-1 03", "group": "resource", "lat": 33.67555726172333, "lon": 30.469381509800932, "alt_km": 637.1500170899853, "timestamp": "2025-12-04T05:42:43.035522+00:00", "meta": {"OBJECT_NAME": "GAOFEN-1 03", "OBJECT_ID": "2018-031B", "EPOCH": "2025-12-03T23:03:07.435008", "MEAN_MOTION": 14.7640804, "ECCENTRICITY": 0.0002594, "INCLINATION": 98.0811, "RA_OF_ASC_NODE": 35.624, "ARG_OF_PERICENTER": 356.8801, "MEAN_ANOMALY": 3.2391, "EPHEMERIS_TYPE": 0, "CLASSIFICATION_TYPE": "U", "NORAD_CAT_ID": 43260, "ELEMENT_SET_NO": 999, "REV_AT_EPOCH": 41388, "BSTAR": 0.00026383809, "MEAN_MOTION_DOT": 1.782e-05, "MEAN_MOTION_DDOT": 0}, "tle": {"line1": "1 43260U 18031B   25337.96050272  .00001782  00000+0  26384-3 0  9992", "line2": "2 43260  98.0811  35.6240 0002594 356.8801   3.2391 14.76408040413881"}}, "geometry": {"type": "Point", "coordinates": [30.469381509800932, 33.67555726172333]}}]}